[{"OBJECT_NAME":"TEN-KOH","OBJECT_ID":"2018-084G","EPOCH":"2026-03-09T23:23:52.653408","MEAN_MOTION":15.02465351,"ECCENTRICITY":0.0011972,"INCLINATION":98.0798,"RA_OF_ASC_NODE":257.1735,"ARG_OF_PERICENTER":91.8355,"MEAN_ANOMALY":268.424,"EPHEMERIS_TYPE":0,"CLASSIFICATION_TYPE":"U","NORAD_CAT_ID":43677,"ELEMENT_SET_NO":999,"REV_AT_EPOCH":40126,"BSTAR":0.00025918134,"MEAN_MOTION_DOT":3.377e-5,"MEAN_MOTION_DDOT":0},{"OBJECT_NAME":"STARLINK-5842","OBJECT_ID":"2023-064AV","EPOCH":"2026-03-09T11:55:29.925696","MEAN_MOTION":14.98329375,"ECCENTRICITY":0.00029733,"INCLINATION":69.9993,"RA_OF_ASC_NODE":104.9449,"ARG_OF_PERICENTER":261.9443,"MEAN_ANOMALY":98.1379,"EPHEMERIS_TYPE":0,"CLASSIFICATION_TYPE":"U","NORAD_CAT_ID":56491,"ELEMENT_SET_NO":999,"REV_AT_EPOCH":15620,"BSTAR":-1.9688752e-5,"MEAN_MOTION_DOT":-3.28e-6,"MEAN_MOTION_DDOT":0}]
